<?xml version="1.0" encoding="UTF-8"?>
<kml xmlns="http://www.opengis.net/kml/2.2">
  <Document>
    <name>曼谷 Pinklao 美食地圖</name>
    <description>座標為依公開資訊整理之近似值，僅供 KML 匯入定位用；執行 fetch_place_ids.py 並帶入有效 API Key 可取得官方精確座標與 place_id。營業時間/花費為概估，出發前請再確認。</description>
    <Style id="style_98444">
      <IconStyle>
        <color>ff2dc0fb</color>
        <scale>1.1</scale>
        <Icon><href>http://maps.google.com/mapfiles/kml/shapes/dining.png</href></Icon>
      </IconStyle>
    </Style>
    <Style id="style_28870">
      <IconStyle>
        <color>ff0000ff</color>
        <scale>1.1</scale>
        <Icon><href>http://maps.google.com/mapfiles/kml/shapes/dining.png</href></Icon>
      </IconStyle>
    </Style>
    <Style id="style_22555">
      <IconStyle>
        <color>ffff7800</color>
        <scale>1.1</scale>
        <Icon><href>http://maps.google.com/mapfiles/kml/shapes/dining.png</href></Icon>
      </IconStyle>
    </Style>
    <Style id="style_4843">
      <IconStyle>
        <color>ff00aa55</color>
        <scale>1.1</scale>
        <Icon><href>http://maps.google.com/mapfiles/kml/shapes/dining.png</href></Icon>
      </IconStyle>
    </Style>
    <Folder>
      <name>曼谷 Pinklao 美食地圖</name>
      <Placemark>
        <name>Maruay Food Hall</name>
        <description>3, 124 Borommaratchachonnani Rd, Bangkok Noi, Bangkok
Pinklao 在地美食廣場，平價多樣</description>
        <styleUrl>#style_98444</styleUrl>
        <Point><coordinates>100.4759,13.7793,0</coordinates></Point>
      </Placemark>
      <Placemark>
        <name>Indy Market Pinklao</name>
        <description>209 Charan Sanit Wong Rd, Bang Phlat, Bangkok
人氣夜市，街頭小吃、服飾、現場音樂</description>
        <styleUrl>#style_98444</styleUrl>
        <Point><coordinates>100.4829,13.7849,0</coordinates></Point>
      </Placemark>
      <Placemark>
        <name>Central Pinklao</name>
        <description>7/222 Borommaratchachonnani Rd, Arun Amarin, Bangkok Noi
本區主要購物中心，餐廳、超市、影城</description>
        <styleUrl>#style_98444</styleUrl>
        <Point><coordinates>100.4762,13.7787,0</coordinates></Point>
      </Placemark>
      <Placemark>
        <name>Onkijung Central Pinklao</name>
        <description>7/222 Borommaratchachonnani Rd, G Floor, Bangkok Noi
韓式烤肉，位於 Central Pinklao G 樓</description>
        <styleUrl>#style_98444</styleUrl>
        <Point><coordinates>100.4763,13.7787,0</coordinates></Point>
      </Placemark>
      <Placemark>
        <name>The Stone Central Pinklao</name>
        <description>7/222 Borommaratchachonnani Rd, 5th Floor, Bangkok Noi
餐廳，位於 Central Pinklao 5 樓</description>
        <styleUrl>#style_98444</styleUrl>
        <Point><coordinates>100.4762,13.7788,0</coordinates></Point>
      </Placemark>
      <Placemark>
        <name>CASA 17 Hotel</name>
        <description>163, Soi Somdet Phra Pin Klao 17, Arun Amarin, Bangkok Noi
住宿地點 / 本行程出發基地</description>
        <styleUrl>#style_98444</styleUrl>
        <Point><coordinates>100.4793,13.7718,0</coordinates></Point>
      </Placemark>
    </Folder>
    <Folder>
      <name>週末景點</name>
      <Placemark>
        <name>Grand Palace &amp; Wat Phra Kaew</name>
        <description>Na Phra Lan Rd, Phra Borom Maha Ratchawang, Phra Nakhon, Bangkok
週末1-D1｜大皇宮與玉佛寺，需著長袖長褲｜美食：Err Urban Rustic Thai（在地泰菜）</description>
        <styleUrl>#style_28870</styleUrl>
        <Point><coordinates>100.4915,13.75,0</coordinates></Point>
      </Placemark>
      <Placemark>
        <name>Wat Pho (Reclining Buddha)</name>
        <description>2 Sanam Chai Rd, Phra Nakhon, Bangkok
週末1-D1｜臥佛寺、泰式按摩發源地｜美食：The Deck by Arun Residence 河景餐廳</description>
        <styleUrl>#style_28870</styleUrl>
        <Point><coordinates>100.4927,13.7465,0</coordinates></Point>
      </Placemark>
      <Placemark>
        <name>Tha Maharaj</name>
        <description>1/11 Trok Mahathat, Maharaj Rd, Phra Nakhon, Bangkok
週末1-D1｜河岸文青商場｜美食：Savoey 海鮮、Pa Aew 路邊咖哩飯</description>
        <styleUrl>#style_28870</styleUrl>
        <Point><coordinates>100.4905,13.7568,0</coordinates></Point>
      </Placemark>
      <Placemark>
        <name>Wat Arun (Temple of Dawn)</name>
        <description>158 Thanon Wang Doem, Wat Arun, Bangkok Yai, Bangkok
週末1-D2｜鄭王廟，傍晚與夜間打燈最美｜美食：Eagle Nest 屋頂酒吧看廟</description>
        <styleUrl>#style_28870</styleUrl>
        <Point><coordinates>100.4889,13.7437,0</coordinates></Point>
      </Placemark>
      <Placemark>
        <name>ICONSIAM</name>
        <description>299 Charoen Nakhon Rd, Khlong Ton Sai, Khlong San, Bangkok
週末1-D2｜河岸地標商場｜美食：SookSiam 室內水上市場美食街</description>
        <styleUrl>#style_28870</styleUrl>
        <Point><coordinates>100.51,13.7264,0</coordinates></Point>
      </Placemark>
      <Placemark>
        <name>The Jam Factory</name>
        <description>41/1-5 Charoen Nakhon Rd, Khlong San, Bangkok
週末1-D2｜文創倉庫聚落｜美食：The Never Ending Summer 泰式創意菜</description>
        <styleUrl>#style_28870</styleUrl>
        <Point><coordinates>100.5089,13.7283,0</coordinates></Point>
      </Placemark>
      <Placemark>
        <name>Chatuchak Weekend Market</name>
        <description>587/10 Kamphaeng Phet 2 Rd, Chatuchak, Bangkok
週末2-D1｜全球最大週末市集（僅週末），建議上午到｜美食：市場內泰式小吃、椰子冰淇淋</description>
        <styleUrl>#style_28870</styleUrl>
        <Point><coordinates>100.5503,13.7999,0</coordinates></Point>
      </Placemark>
      <Placemark>
        <name>Or Tor Kor Market</name>
        <description>101 Kamphaeng Phet Rd, Chatuchak, Bangkok
週末2-D1｜高級生鮮與熟食市場｜美食：泰式咖哩、芒果糯米、海鮮</description>
        <styleUrl>#style_28870</styleUrl>
        <Point><coordinates>100.549,13.8045,0</coordinates></Point>
      </Placemark>
      <Placemark>
        <name>JJ Green / Ari neighbourhood</name>
        <description>Ari, Phaya Thai, Bangkok
週末2-D1晚｜Ari 文青街區｜美食：Salt、Ari 巷弄咖啡與酒吧</description>
        <styleUrl>#style_28870</styleUrl>
        <Point><coordinates>100.5446,13.7796,0</coordinates></Point>
      </Placemark>
      <Placemark>
        <name>Terminal 21 Asok</name>
        <description>88 Sukhumvit Soi 19, Watthana, Bangkok
週末2-D2｜各國主題樓層商場｜美食：Pier 21 平價美食街</description>
        <styleUrl>#style_28870</styleUrl>
        <Point><coordinates>100.5601,13.7376,0</coordinates></Point>
      </Placemark>
      <Placemark>
        <name>EmSphere / The Em District</name>
        <description>628 Sukhumvit Rd, Khlong Tan, Khlong Toei, Bangkok
週末2-D2｜新潮商場（含 UNIQLO、夜間市集）｜美食：EmSphere Food Hall、燒肉</description>
        <styleUrl>#style_28870</styleUrl>
        <Point><coordinates>100.5697,13.7305,0</coordinates></Point>
      </Placemark>
      <Placemark>
        <name>Benjakitti Forest Park</name>
        <description>Ratchadaphisek Rd, Khlong Toei, Bangkok
週末2-D2｜城市森林公園空中步道｜美食：附近 Sukhumvit 餐廳林立</description>
        <styleUrl>#style_28870</styleUrl>
        <Point><coordinates>100.56,13.724,0</coordinates></Point>
      </Placemark>
      <Placemark>
        <name>Yaowarat (Chinatown)</name>
        <description>Yaowarat Rd, Samphanthawong, Bangkok
週末3-D1｜唐人街街頭美食天堂（傍晚最熱鬧）｜美食：T&amp;K Seafood、Nai Ek 豬肉粥、烤栗子</description>
        <styleUrl>#style_28870</styleUrl>
        <Point><coordinates>100.5093,13.7404,0</coordinates></Point>
      </Placemark>
      <Placemark>
        <name>Wat Traimit (Golden Buddha)</name>
        <description>661 Charoen Krung Rd, Talat Noi, Samphanthawong, Bangkok
週末3-D1｜純金大佛｜美食：Talat Noi 巷弄老咖啡與壁畫</description>
        <styleUrl>#style_28870</styleUrl>
        <Point><coordinates>100.5135,13.7373,0</coordinates></Point>
      </Placemark>
      <Placemark>
        <name>Talat Noi</name>
        <description>Talat Noi, Samphanthawong, Bangkok
週末3-D1｜老社區、壁畫、文青咖啡｜美食：Hong Sieng Kong 河景咖啡</description>
        <styleUrl>#style_28870</styleUrl>
        <Point><coordinates>100.5145,13.7355,0</coordinates></Point>
      </Placemark>
      <Placemark>
        <name>Asiatique The Riverfront</name>
        <description>2194 Charoen Krung Rd, Wat Phraya Krai, Bang Kho Laem, Bangkok
週末3-D2｜河岸夜間市集與摩天輪｜美食：Baan Khanitha 泰菜、河鮮</description>
        <styleUrl>#style_28870</styleUrl>
        <Point><coordinates>100.5085,13.7045,0</coordinates></Point>
      </Placemark>
      <Placemark>
        <name>Lhong 1919</name>
        <description>248 Chiang Mai Rd, Khlong San, Bangkok
週末3-D2｜中式古宅河岸景點｜美食：園區內泰式咖啡與小館</description>
        <styleUrl>#style_28870</styleUrl>
        <Point><coordinates>100.507,13.7308,0</coordinates></Point>
      </Placemark>
      <Placemark>
        <name>Bang Krachao (Green Lung) Cycling</name>
        <description>Bang Kachao, Phra Pradaeng, Samut Prakan
週末4-D1｜城市綠肺單車一日遊（搭船過河租車）｜美食：當地椰糖、河畔小吃</description>
        <styleUrl>#style_28870</styleUrl>
        <Point><coordinates>100.548,13.696,0</coordinates></Point>
      </Placemark>
      <Placemark>
        <name>Bang Nam Phueng Floating Market</name>
        <description>Bang Nam Phueng, Phra Pradaeng, Samut Prakan
週末4-D1｜僅週末開放的在地水上市場｜美食：炭烤、椰子甜點、現做泰式小吃</description>
        <styleUrl>#style_28870</styleUrl>
        <Point><coordinates>100.564,13.6905,0</coordinates></Point>
      </Placemark>
      <Placemark>
        <name>Phra Athit Road &amp; Banglamphu</name>
        <description>Phra Athit Rd, Phra Nakhon, Bangkok
週末4-D2｜河岸老城散步、文青咖啡（離 Pinklao 最近）｜美食：Jok Pochana、Krua Apsorn</description>
        <styleUrl>#style_28870</styleUrl>
        <Point><coordinates>100.4945,13.7625,0</coordinates></Point>
      </Placemark>
      <Placemark>
        <name>Khaosan Road</name>
        <description>Khaosan Rd, Talat Yot, Phra Nakhon, Bangkok
週末4-D2晚｜背包客夜生活大街｜美食：Pad Thai 攤、炸蟲、調酒</description>
        <styleUrl>#style_28870</styleUrl>
        <Point><coordinates>100.4974,13.7588,0</coordinates></Point>
      </Placemark>
    </Folder>
    <Folder>
      <name>平日晚上</name>
      <Placemark>
        <name>Indy Market Pinklao</name>
        <description>209 Charan Sanit Wong Rd, Bang Phlat, Bangkok
夜市｜營業約 17:00–23:00（週四–日較盛）｜步行/Grab 10分｜約 150–300 THB</description>
        <styleUrl>#style_22555</styleUrl>
        <Point><coordinates>100.4829,13.7849,0</coordinates></Point>
      </Placemark>
      <Placemark>
        <name>Central Pinklao</name>
        <description>7/222 Borommaratchachonnani Rd, Bangkok Noi
商場餐飲｜約 10:00–22:00｜步行/Grab 5–10分｜約 200–400 THB</description>
        <styleUrl>#style_22555</styleUrl>
        <Point><coordinates>100.4762,13.7787,0</coordinates></Point>
      </Placemark>
      <Placemark>
        <name>Sena Fest</name>
        <description>Borommaratchachonnani Rd, Taling Chan, Bangkok
社區型商場｜約 10:00–22:00｜Grab 10–15分｜約 200–350 THB</description>
        <styleUrl>#style_22555</styleUrl>
        <Point><coordinates>100.453,13.7846,0</coordinates></Point>
      </Placemark>
      <Placemark>
        <name>Tha Maharaj Riverside</name>
        <description>Maharaj Rd, Phra Nakhon, Bangkok
河岸商場｜約 10:00–22:00｜Grab/渡船 15分｜約 250–450 THB</description>
        <styleUrl>#style_22555</styleUrl>
        <Point><coordinates>100.4905,13.7568,0</coordinates></Point>
      </Placemark>
      <Placemark>
        <name>Wang Lang Market (Siriraj)</name>
        <description>Wang Lang Rd, Siriraj, Bangkok Noi
在地市場美食｜約 08:00–20:00｜Grab 10分｜約 100–250 THB</description>
        <styleUrl>#style_22555</styleUrl>
        <Point><coordinates>100.4853,13.7588,0</coordinates></Point>
      </Placemark>
      <Placemark>
        <name>Phra Athit Road</name>
        <description>Phra Athit Rd, Phra Nakhon, Bangkok
河岸咖啡酒吧街｜約 11:00–24:00｜Grab 15分｜約 200–500 THB</description>
        <styleUrl>#style_22555</styleUrl>
        <Point><coordinates>100.4945,13.7625,0</coordinates></Point>
      </Placemark>
      <Placemark>
        <name>Khaosan Road</name>
        <description>Khaosan Rd, Phra Nakhon, Bangkok
夜生活｜約 18:00–02:00｜Grab 15分｜約 200–600 THB</description>
        <styleUrl>#style_22555</styleUrl>
        <Point><coordinates>100.4974,13.7588,0</coordinates></Point>
      </Placemark>
      <Placemark>
        <name>Yodpiman River Walk</name>
        <description>Chakkraphet Rd, Phra Nakhon, Bangkok
河岸商場＋鮮花市場｜約 10:00–22:00｜Grab 20分｜約 150–400 THB</description>
        <styleUrl>#style_22555</styleUrl>
        <Point><coordinates>100.497,13.7415,0</coordinates></Point>
      </Placemark>
      <Placemark>
        <name>Pak Khlong Talat (Flower Market)</name>
        <description>Chak Phet Rd, Phra Nakhon, Bangkok
24小時鮮花市場，夜晚最美｜Grab 20分｜約 50–200 THB</description>
        <styleUrl>#style_22555</styleUrl>
        <Point><coordinates>100.4965,13.742,0</coordinates></Point>
      </Placemark>
      <Placemark>
        <name>Saphan Phut Night Market</name>
        <description>Memorial Bridge, Phra Nakhon, Bangkok
橋下夜市｜約 19:00–24:00｜Grab 20分｜約 100–300 THB</description>
        <styleUrl>#style_22555</styleUrl>
        <Point><coordinates>100.4975,13.7405,0</coordinates></Point>
      </Placemark>
      <Placemark>
        <name>ICONSIAM</name>
        <description>299 Charoen Nakhon Rd, Khlong San, Bangkok
河岸商場＋燈光秀｜約 10:00–22:00｜Grab/渡船 20分｜約 250–600 THB</description>
        <styleUrl>#style_22555</styleUrl>
        <Point><coordinates>100.51,13.7264,0</coordinates></Point>
      </Placemark>
      <Placemark>
        <name>The Jam Factory</name>
        <description>41/1-5 Charoen Nakhon Rd, Khlong San, Bangkok
文創餐飲｜約 10:30–20:00｜Grab 20分｜約 250–450 THB</description>
        <styleUrl>#style_22555</styleUrl>
        <Point><coordinates>100.5089,13.7283,0</coordinates></Point>
      </Placemark>
      <Placemark>
        <name>Lhong 1919</name>
        <description>248 Chiang Mai Rd, Khlong San, Bangkok
河岸古宅夜景｜約 08:00–22:00｜Grab 20分｜約 150–400 THB</description>
        <styleUrl>#style_22555</styleUrl>
        <Point><coordinates>100.507,13.7308,0</coordinates></Point>
      </Placemark>
      <Placemark>
        <name>Tha Tien Pier &amp; The Deck</name>
        <description>Maha Rat Rd, Phra Nakhon, Bangkok
看 Wat Arun 夜景餐廳｜約 11:00–22:00｜Grab/渡船 20分｜約 400–800 THB</description>
        <styleUrl>#style_22555</styleUrl>
        <Point><coordinates>100.4915,13.7438,0</coordinates></Point>
      </Placemark>
      <Placemark>
        <name>Banglamphu Walking Street</name>
        <description>Banglamphu, Phra Nakhon, Bangkok
老城散步美食｜約 17:00–23:00｜Grab 15分｜約 150–350 THB</description>
        <styleUrl>#style_22555</styleUrl>
        <Point><coordinates>100.496,13.761,0</coordinates></Point>
      </Placemark>
      <Placemark>
        <name>Tha Phra / The Mall Lifestore</name>
        <description>Charan Sanit Wong Rd, Bangkok Yai, Bangkok
MRT Tha Phra 旁商場｜約 10:00–22:00｜MRT/Grab 15分｜約 200–400 THB</description>
        <styleUrl>#style_22555</styleUrl>
        <Point><coordinates>100.476,13.7237,0</coordinates></Point>
      </Placemark>
      <Placemark>
        <name>Riva Surya Riverside</name>
        <description>23 Phra Athit Rd, Phra Nakhon, Bangkok
河岸餐廳酒廊｜約 11:00–23:00｜Grab 15分｜約 400–800 THB</description>
        <styleUrl>#style_22555</styleUrl>
        <Point><coordinates>100.494,13.7635,0</coordinates></Point>
      </Placemark>
      <Placemark>
        <name>Bang Phlat Café Street</name>
        <description>Charan Sanit Wong Soi, Bang Phlat, Bangkok
在地咖啡/小館聚落｜約 09:00–21:00｜步行/Grab 10分｜約 120–300 THB</description>
        <styleUrl>#style_22555</styleUrl>
        <Point><coordinates>100.4865,13.79,0</coordinates></Point>
      </Placemark>
      <Placemark>
        <name>The Sense Pinklao</name>
        <description>Borommaratchachonnani Rd, Bang Bamru, Bangkok
社區商場餐飲｜約 10:00–22:00｜Grab 10分｜約 150–350 THB</description>
        <styleUrl>#style_22555</styleUrl>
        <Point><coordinates>100.469,13.7846,0</coordinates></Point>
      </Placemark>
      <Placemark>
        <name>Supreme Pinklao Community Mall</name>
        <description>Somdet Phra Pin Klao Rd, Bangkok Noi
鄰近住宿的餐飲商場｜約 10:00–22:00｜步行 5–10分｜約 150–350 THB</description>
        <styleUrl>#style_22555</styleUrl>
        <Point><coordinates>100.4805,13.7745,0</coordinates></Point>
      </Placemark>
    </Folder>
    <Folder>
      <name>咖啡廳</name>
      <Placemark>
        <name>Factory Coffee</name>
        <description>49 Phaya Thai Rd, Ratchathewi, Bangkok
世界沖煮賽冠軍店｜約 08:30–18:00｜販豆：多國單品（衣索比亞、哥倫比亞），淺中焙｜招牌：手沖單品、Signature 創意飲</description>
        <styleUrl>#style_4843</styleUrl>
        <Point><coordinates>100.533,13.7565,0</coordinates></Point>
      </Placemark>
      <Placemark>
        <name>Roots Coffee (ICONSIAM)</name>
        <description>299 Charoen Nakhon Rd, Khlong San, Bangkok
曼谷知名自家烘焙｜約 10:00–22:00｜販豆：泰國北部＋進口單品，淺至中焙｜招牌：拿鐵、黑糖系列</description>
        <styleUrl>#style_4843</styleUrl>
        <Point><coordinates>100.51,13.7264,0</coordinates></Point>
      </Placemark>
      <Placemark>
        <name>Gallery Drip Coffee (BACC)</name>
        <description>939 Rama I Rd, Wang Mai, Pathum Wan, Bangkok
藝術中心內手沖名店｜約 10:30–19:30｜販豆：精選單品手沖豆，淺焙｜招牌：手沖單品</description>
        <styleUrl>#style_4843</styleUrl>
        <Point><coordinates>100.53,13.7466,0</coordinates></Point>
      </Placemark>
      <Placemark>
        <name>Pacamara Boutique Coffee Roasters</name>
        <description>Ari area, Phaya Thai, Bangkok
連鎖自家烘焙｜約 07:00–20:00｜販豆：自家烘焙綜合與單品，中焙為主｜招牌：Dirty、冷萃</description>
        <styleUrl>#style_4843</styleUrl>
        <Point><coordinates>100.544,13.78,0</coordinates></Point>
      </Placemark>
      <Placemark>
        <name>Hands and Heart</name>
        <description>Soi Itsaraphap 21, Khlong San, Bangkok
河西岸精品名店（離 Pinklao 近）｜約 08:00–17:00｜販豆：精選競標級單品，淺焙｜招牌：手沖、Espresso Tonic</description>
        <styleUrl>#style_4843</styleUrl>
        <Point><coordinates>100.4985,13.733,0</coordinates></Point>
      </Placemark>
      <Placemark>
        <name>Karb Coffee (Pinklao)</name>
        <description>Charan Sanit Wong Rd, Bang Phlat, Bangkok
Pinklao 在地小店｜約 08:00–18:00｜販豆：泰國本地烘焙豆｜招牌：拿鐵、手沖</description>
        <styleUrl>#style_4843</styleUrl>
        <Point><coordinates>100.4845,13.7872,0</coordinates></Point>
      </Placemark>
      <Placemark>
        <name>The Coffee Cup Pinklao</name>
        <description>Borommaratchachonnani Rd, Bangkok Noi
本區友善咖啡館｜約 08:00–20:00｜販豆：自選綜合豆｜招牌：濃縮、甜點搭配</description>
        <styleUrl>#style_4843</styleUrl>
        <Point><coordinates>100.474,13.7795,0</coordinates></Point>
      </Placemark>
    </Folder>
  </Document>
</kml>
